KUIPER-00079            
1 64826U 25151L   25275.91670139  .00044819  00000+0  58658-2 0  9996
2 64826  51.8986 277.9454 0012874  80.3980 296.8340 14.79903443  4407
KUIPER-00080            
1 64827U 25151M   25275.43637823  .00018751  00000+0  24715-2 0  9990
2 64827  51.8987 280.3702 0005881  94.4455 265.7179 14.80099426 11879
KUIPER-00082            
1 64828U 25151N   25275.91670139 -.01113677  00000+0 -59376-1 0  9997
2 64828  51.8867 269.5408 0005138  72.1643 276.7532 15.17460341  5761
KUIPER-00083            
1 64829U 25151P   25275.91670139 -.00937855  00000+0 -96384-1 0  9999
2 64829  51.8925 273.7368 0010928  79.1670 245.7266 14.92661217  5485
KUIPER-00084            
1 64830U 25151Q   25275.32473303  .00007071  00000+0  97080-3 0  9992
2 64830  51.8994 285.8081 0011487  57.3470 302.8598 14.79232253 11788
KUIPER-00085            
1 64831U 25151R   25275.91670139 -.00503135  00000+0 -28220-1 0  9996
2 64831  51.8947 269.6522 0010224  74.4944 152.8811 15.15263592  4099
KUIPER-00086            
1 64832U 25151S   25275.91670139 -.00387003  00000+0 -47516-1 0  9990
2 64832  51.8986 275.8442 0011475  81.2247 264.9183 14.84924328  3355
KUIPER-00087            
1 64833U 25151T   25275.91670139 -.00417881  00000+0 -13008-1 0  9998
2 64833  51.8790 268.0087 0007949  80.6240 285.7451 15.34430231  3883
